OBJECT_NAME,OBJECT_ID,EPOCH,MEAN_MOTION,ECCENTRICITY,INCLINATION,RA_OF_ASC_NODE,ARG_OF_PERICENTER,MEAN_ANOMALY,EPHEMERIS_TYPE,CLASSIFICATION_TYPE,NORAD_CAT_ID,ELEMENT_SET_NO,REV_AT_EPOCH,BSTAR,MEAN_MOTION_DOT,MEAN_MOTION_DDOT
ESIAFI 1 (COMSTAR 4),1981-018A,2024-10-31T13:25:21.272736,1.00285754,.0001063,9.8533,315.2827,110.4761,249.4381,0,U,12309,999,16149,0,-.86E-6,0
SL-6 R/B(2),1981-016E,2024-10-26T05:38:19.116672,2.04669980,.5690907,70.0731,58.6733,335.7410,5.5490,0,U,12311,999,32655,0,-.242E-5,0
COSMOS 1249,1981-021A,2024-10-31T13:29:45.356928,13.86718844,.003463,64.9636,248.2226,108.2841,252.1993,0,U,12319,999,21275,.10755E-3,.36E-6,0
COSMOS 1250,1981-022A,2024-10-31T20:28:00.326784,12.58267176,.0052819,74.0303,71.3808,243.3321,236.7670,0,U,12320,999,547,.74931E-4,-.4E-7,0
COSMOS 1251,1981-022B,2024-10-31T06:56:56.162688,12.56475874,.0044688,74.0275,143.6308,333.9050,200.0138,0,U,12321,999,255,.34093E-3,.4E-6,0
COSMOS 1252,1981-022C,2024-10-31T20:01:07.719168,12.54796790,.0034133,74.0306,209.9843,47.2464,26.0713,0,U,12322,999,99995,.2025E-3,.17E-6,0
COSMOS 1253,1981-022D,2024-10-31T10:53:40.822944,12.45827897,.0018389,74.0305,204.9584,219.0137,314.6640,0,U,12323,999,98538,.14825E-3,.6E-7,0
COSMOS 1254,1981-022E,2024-10-31T15:48:14.285088,12.53114662,.0025518,74.0271,276.6082,130.8020,42.7028,0,U,12324,999,99725,.55584E-4,-.7E-7,0
COSMOS 1255,1981-022F,2024-10-31T14:44:36.922272,12.51477942,.001746,74.0314,342.1200,207.6770,325.8593,0,U,12325,999,99436,.27282E-3,.26E-6,0
COSMOS 1256,1981-022G,2024-10-31T13:20:15.525600,12.49587213,.0013245,74.0315,56.3712,327.9075,43.9486,0,U,12326,999,99144,.91363E-4,-.2E-7,0
COSMOS 1257,1981-022H,2024-10-31T06:56:42.506304,12.47844578,.0006365,74.0265,125.4058,106.4544,66.9804,0,U,12327,999,98858,.27921E-3,.26E-6,0
SL-8 R/B,1981-022J,2024-10-31T11:46:31.842912,12.23767383,.0149479,74.0232,324.3675,140.5762,13.1728,0,U,12328,999,95032,-.49923E-3,-.7E-6,0
KYOKKO 1 DEB,1978-014C,2024-10-28T20:52:37.517088,10.80089337,.1884902,65.2806,259.1417,346.5510,9.1113,0,U,12329,999,83854,.32651E-2,.2709E-4,0
KYOKKO 1 DEB,1978-014D,2024-10-31T11:00:47.811744,10.78171860,.1894689,65.3707,61.4640,153.9834,217.0254,0,U,12330,999,60255,.20593E-2,.169E-4,0
KYOKKO 1 DEB,1978-014E,2024-10-31T12:19:51.008448,10.98039632,.1794337,64.8227,312.8392,136.0620,239.7924,0,U,12331,999,85871,.92895E-3,.767E-5,0
COSMOS 839 DEB,1976-067AY,2024-10-31T03:13:23.778336,12.32348407,.0725302,66.0571,251.5627,340.0001,28.5676,0,U,12332,999,1959,.1114E-3,-.22E-6,0
COSMOS 839 DEB,1976-067AZ,2024-10-31T09:59:55.749408,12.45206007,.0729827,65.9336,340.4009,174.9621,198.5689,0,U,12333,999,50092,.16229E-3,.4E-7,0
OPS 7350 (DSP 9),1981-025A,2024-10-31T13:53:30.952608,0.98826193,.0019921,9.3711,309.2504,271.5669,90.3483,0,U,12339,999,1997,0,.57E-6,0
COSMOS 1174 DEB,1980-030R,2024-10-31T09:08:46.559616,14.89723995,.0119265,66.3982,146.1386,23.2900,337.3566,0,U,12343,999,25514,.8852E-2,.98362E-3,0
RADUGA 8,1981-027A,2024-10-31T03:26:47.832288,1.00389501,.0081355,7.7305,295.3140,255.3712,292.3772,0,U,12351,999,11658,0,.153E-5,0
COSMOS 1174 DEB,1980-030Y,2024-10-31T13:45:40.895136,14.80848908,.0354856,66.1028,150.6204,259.5872,96.5080,0,U,12354,999,30866,.71782E-3,.16818E-3,0
ATLAS CENTAUR R/B,1981-018B,2024-10-31T08:07:44.012640,2.22075257,.7192355,19.8976,180.6286,60.0764,351.9684,0,U,12363,999,35422,.46579E-2,.267E-5,0
TITAN 3C TRANSTAGE R/B,1981-025C,2024-10-31T01:09:52.155648,1.01339501,.0056068,7.9879,303.4089,310.4403,48.9381,0,U,12371,999,2101,0,-.17E-5,0
DELTA 1 DEB,1978-026EP,2024-10-31T00:33:49.238784,14.50373601,.0037121,98.5070,326.5299,224.3889,165.4951,0,U,12372,999,61734,.26573E-2,.10431E-3,0
DELTA 1 DEB,1978-026EQ,2024-10-31T15:31:36.212160,14.02779553,.0015169,99.1413,263.9697,59.5728,114.4822,0,U,12373,999,20889,.74094E-3,.1102E-4,0
COSMOS 1261,1981-031A,2024-10-31T11:11:26.642112,2.00896271,.6155093,68.4292,125.8869,5.5268,359.0133,0,U,12376,999,21555,0,-.529E-5,0
SL-6 R/B(2),1981-031D,2024-10-31T05:48:29.645856,2.03545805,.6353118,67.1999,112.7257,11.8911,145.7922,0,U,12384,999,32402,0,-.99E-6,0
COSMOS 1263,1981-033A,2024-10-31T20:22:22.618560,14.22298040,.0609051,82.8614,342.4540,103.6698,263.3027,0,U,12388,999,18680,.59722E-3,.10139E-3,0
SL-8 DEB,1980-022C,2024-10-31T20:01:53.949216,14.47021029,.0015066,82.9143,349.0298,144.3453,215.8752,0,U,12404,999,28094,.7422E-2,.27142E-3,0
KYOKKO 1 DEB,1978-014F,2024-10-31T19:18:00.384768,10.91737189,.1810726,65.8876,209.8593,98.7540,282.1690,0,U,12406,999,85027,.26182E-2,.2046E-4,0
COSMOS 1266,1981-037A,2024-10-31T17:36:01.913472,13.90557253,.0012607,64.7621,81.3385,66.4413,293.7971,0,U,12409,999,21036,.1064E-3,.41E-6,0
DELTA 1 DEB,1978-026ET,2024-10-31T08:03:11.397312,14.37877208,.0110251,99.1144,78.8888,261.7938,125.7766,0,U,12427,999,28633,.52713E-2,.17052E-3,0
COSMOS 1266 FUEL CORE,1981-037D,2024-10-31T20:11:27.951936,13.93170580,.0019851,64.7685,251.8190,320.9699,38.9931,0,U,12435,999,21360,.34497E-4,-.47E-6,0
COSMOS 1269,1981-041A,2024-10-31T10:49:32.663136,14.32810096,.0009567,74.0562,9.1080,17.0942,343.0529,0,U,12442,999,27093,.27847E-3,.734E-5,0
SL-8 R/B,1981-041B,2024-10-31T08:37:00.096096,14.35577481,.0003028,74.0521,277.6846,61.3116,298.8341,0,U,12443,999,27401,.5011E-3,.1418E-4,0
ATLAS CENTAUR R/B,1980-098B,2024-10-31T09:21:34.794720,7.08245802,.4129734,23.6319,327.1259,67.1379,330.8188,0,U,12445,999,2173,.16195E-2,.8043E-4,0
TITAN 34B R/B,1981-038B,2024-10-31T17:29:27.429216,4.58342771,.5637673,63.0527,188.0946,284.5395,21.9165,0,U,12446,999,6711,.29315E-2,.13562E-3,0
SL-12 R/B(2),1980-081F,2024-10-30T18:40:52.246272,0.99976210,.0003214,7.6114,295.8568,27.4681,348.2455,0,U,12447,999,15844,0,-.121E-5,0
METEOR 2-7,1981-043A,2024-10-31T10:31:41.774016,14.10813336,.0047458,81.2635,316.4857,16.2352,344.0326,0,U,12456,999,23532,.40241E-3,.74E-5,0
SL-3 R/B,1981-043B,2024-10-31T18:00:12.852000,14.07527589,.0066784,81.2773,37.3646,141.5454,219.0503,0,U,12457,999,23154,.18713E-3,.335E-5,0
NOVA 1,1981-044A,2024-10-31T20:33:16.803072,13.23208461,.0015207,89.8577,97.0910,140.3677,337.0719,0,U,12458,999,9832,.46793E-3,.207E-5,0
SL-3 R/B,1981-046B,2024-10-31T19:02:47.052960,15.28880099,.0024314,81.2361,156.8543,288.7860,71.0738,0,U,12465,999,37571,.75339E-3,.21381E-3,0
SL-12 R/B(2),1980-104E,2024-10-31T05:52:37.358976,1.01338347,.0033373,6.9409,293.0235,184.3900,191.5044,0,U,12471,999,11394,0,.105E-5,0
GOES 5,1981-049A,2024-10-31T14:45:26.139168,1.00337255,.0003852,10.4284,319.6828,270.1286,276.1625,0,U,12472,999,11701,0,-.44E-6,0
INTELSAT 501,1981-050A,2024-10-31T16:41:42.748224,0.98851153,.0007865,11.8612,328.5026,248.1590,291.3167,0,U,12474,999,13188,0,.9E-7,0
ATLAS CENTAUR R/B,1981-050B,2024-10-31T19:48:19.350144,8.62162186,.3344287,23.9457,115.7176,226.4070,100.5418,0,U,12497,999,12521,.19993E-2,.23716E-3,0
COSMOS 1275,1981-053A,2024-10-31T09:22:20.516736,13.74464185,.0040483,82.9616,343.8843,36.4588,323.9312,0,U,12504,999,17789,.16802E-3,.175E-5,0
SL-8 R/B,1981-053B,2024-10-31T10:36:57.604896,13.76547625,.003626,82.9553,307.8351,231.9505,127.8379,0,U,12508,999,18572,.2331E-3,.244E-5,0
DELTA 1 DEB,1976-077DG,2024-10-31T19:54:04.536288,12.38031396,.0038942,102.0684,270.5898,50.8128,17.5920,0,U,12527,999,7877,.81948E-3,.62E-6,0
DELTA 1 DEB,1976-077DH,2024-10-31T10:24:58.248864,12.27189403,.0077657,102.4892,277.7323,265.3746,250.5917,0,U,12528,999,9834,.50601E-3,.12E-6,0
DELTA 1 DEB,1976-077DJ,2024-10-31T16:46:02.777664,11.23382399,.0916506,103.5278,116.9554,254.9148,94.8766,0,U,12529,999,76646,.44361E-1,.3562E-4,0
DELTA 1 DEB,1976-077DK,2024-10-31T09:33:12.879072,12.27035102,.0126553,102.4944,280.8961,290.0455,228.0931,0,U,12530,999,1025,.22219E-3,-.21E-6,0
DELTA 1 DEB,1976-077DL,2024-10-31T10:38:17.218176,12.18458700,.0134745,101.7266,124.6809,101.6899,289.6315,0,U,12531,999,97548,.87674E-3,.52E-6,0
DELTA 1 DEB,1976-077DM,2024-10-31T20:24:10.394784,12.76545045,.025135,102.1249,252.2260,20.7210,356.6801,0,U,12532,999,3473,.11716E-1,.2849E-4,0
DELTA 1 DEB,1976-077DN,2024-10-31T16:40:11.818272,12.47022021,.0080296,101.7013,274.8526,325.5934,209.0396,0,U,12533,999,8257,.45249E-2,.625E-5,0
DELTA 1 DEB,1976-077DP,2024-10-31T18:38:41.942112,12.36991015,.0056372,102.0204,13.5241,101.1165,19.3254,0,U,12534,999,9618,.43338E-2,.516E-5,0
DELTA 1 DEB,1976-077DQ,2024-10-31T12:40:20.546112,11.66312123,.0400905,102.2657,310.5879,53.4131,98.1738,0,U,12535,999,99397,.1256E-2,.47E-6,0
DELTA 1 DEB,1976-077DR,2024-10-31T09:47:49.013952,11.78040397,.0505617,101.9178,104.6251,131.2060,261.9099,0,U,12536,999,98387,.35296E-1,.3034E-4,0
DELTA 1 DEB,1976-077DS,2024-10-31T05:39:07.361568,12.11528725,.0161708,102.2287,283.8760,229.5863,250.7295,0,U,12537,999,96490,.13252E-2,.86E-6,0
DELTA 1 DEB,1976-077DT,2024-10-31T04:45:24.665760,12.05714158,.0198821,102.7846,39.7802,182.2128,206.5689,0,U,12538,999,96083,.1893E-2,.13E-5,0
DELTA 1 DEB,1976-077DU,2024-10-29T16:03:22.347360,12.77029936,.0373256,101.6676,188.6885,44.2957,12.3689,0,U,12539,999,5374,.13375E-2,.344E-5,0
DELTA 1 DEB,1976-077DV,2024-10-31T04:24:49.366080,12.47193649,.0040622,102.4285,35.9135,7.1899,23.1880,0,U,12540,999,2669,.17355E-2,.207E-5,0
DELTA 1 DEB,1976-077DX,2024-10-31T09:47:39.729408,12.52290631,.0060925,101.8749,277.4494,339.2289,174.6945,0,U,12542,999,375,.66937E-3,.6E-6,0
COSMOS 839 DEB,1976-067BA,2024-10-31T09:08:44.424672,12.43822453,.0640772,66.0297,278.6482,326.2146,189.8620,0,U,12543,999,18428,.86742E-2,.2464E-4,0
METEOSAT-2,1981-057A,2024-10-30T21:56:24.859104,0.98725495,.002719,11.2827,323.2435,359.4101,1.3967,0,U,12544,999,11798,0,-.205E-5,0
APPLE,1981-057B,2024-10-31T18:41:15.840384,1.00053959,.002724,8.4005,301.8288,214.5963,153.3020,0,U,12545,999,11644,0,-.129E-5,0
CAT 3,1981-057C,2024-10-31T07:09:56.909376,4.47996692,.5666596,10.1963,30.9268,91.5609,330.3100,0,U,12546,999,38844,.88426E-3,.1797E-4,0
